<?xml version="1.0" encoding="UTF-8"?>
<kml xmlns="http://www.opengis.net/kml/2.2">
  <Document>
    <name>漁船・回収地点位置関係マップ</name>
    <description/>
    <Style id="icon-1622-0288D1-nodesc-normal">
      <IconStyle>
        <color>ffd18802</color>
        <scale>1</scale>
        <Icon>
          <href>https://www.gstatic.com/mapspro/images/stock/503-wht-blank_maps.png</href>
        </Icon>
      </IconStyle>
      <LabelStyle>
        <scale>0</scale>
      </LabelStyle>
      <BalloonStyle>
        <text><![CDATA[<h3>$[name]</h3>]]></text>
      </BalloonStyle>
    </Style>
    <Style id="icon-1622-0288D1-nodesc-highlight">
      <IconStyle>
        <color>ffd18802</color>
        <scale>1</scale>
        <Icon>
          <href>https://www.gstatic.com/mapspro/images/stock/503-wht-blank_maps.png</href>
        </Icon>
      </IconStyle>
      <LabelStyle>
        <scale>1</scale>
      </LabelStyle>
      <BalloonStyle>
        <text><![CDATA[<h3>$[name]</h3>]]></text>
      </BalloonStyle>
    </Style>
    <StyleMap id="icon-1622-0288D1-nodesc">
      <Pair>
        <key>normal</key>
        <styleUrl>#icon-1622-0288D1-nodesc-normal</styleUrl>
      </Pair>
      <Pair>
        <key>highlight</key>
        <styleUrl>#icon-1622-0288D1-nodesc-highlight</styleUrl>
      </Pair>
    </StyleMap>
    <Style id="icon-1622-424242-nodesc-normal">
      <IconStyle>
        <color>ff424242</color>
        <scale>1</scale>
        <Icon>
          <href>https://www.gstatic.com/mapspro/images/stock/503-wht-blank_maps.png</href>
        </Icon>
      </IconStyle>
      <LabelStyle>
        <scale>0</scale>
      </LabelStyle>
      <BalloonStyle>
        <text><![CDATA[<h3>$[name]</h3>]]></text>
      </BalloonStyle>
    </Style>
    <Style id="icon-1622-424242-nodesc-highlight">
      <IconStyle>
        <color>ff424242</color>
        <scale>1</scale>
        <Icon>
          <href>https://www.gstatic.com/mapspro/images/stock/503-wht-blank_maps.png</href>
        </Icon>
      </IconStyle>
      <LabelStyle>
        <scale>1</scale>
      </LabelStyle>
      <BalloonStyle>
        <text><![CDATA[<h3>$[name]</h3>]]></text>
      </BalloonStyle>
    </Style>
    <StyleMap id="icon-1622-424242-nodesc">
      <Pair>
        <key>normal</key>
        <styleUrl>#icon-1622-424242-nodesc-normal</styleUrl>
      </Pair>
      <Pair>
        <key>highlight</key>
        <styleUrl>#icon-1622-424242-nodesc-highlight</styleUrl>
      </Pair>
    </StyleMap>
    <Style id="icon-1769-097138-normal">
      <IconStyle>
        <color>ff387109</color>
        <scale>1</scale>
        <Icon>
          <href>https://www.gstatic.com/mapspro/images/stock/503-wht-blank_maps.png</href>
        </Icon>
      </IconStyle>
      <LabelStyle>
        <scale>0</scale>
      </LabelStyle>
    </Style>
    <Style id="icon-1769-097138-highlight">
      <IconStyle>
        <color>ff387109</color>
        <scale>1</scale>
        <Icon>
          <href>https://www.gstatic.com/mapspro/images/stock/503-wht-blank_maps.png</href>
        </Icon>
      </IconStyle>
      <LabelStyle>
        <scale>1</scale>
      </LabelStyle>
    </Style>
    <StyleMap id="icon-1769-097138">
      <Pair>
        <key>normal</key>
        <styleUrl>#icon-1769-097138-normal</styleUrl>
      </Pair>
      <Pair>
        <key>highlight</key>
        <styleUrl>#icon-1769-097138-highlight</styleUrl>
      </Pair>
    </StyleMap>
    <Style id="icon-1769-3949AB-normal">
      <IconStyle>
        <color>ffab4939</color>
        <scale>1</scale>
        <Icon>
          <href>https://www.gstatic.com/mapspro/images/stock/503-wht-blank_maps.png</href>
        </Icon>
      </IconStyle>
      <LabelStyle>
        <scale>0</scale>
      </LabelStyle>
    </Style>
    <Style id="icon-1769-3949AB-highlight">
      <IconStyle>
        <color>ffab4939</color>
        <scale>1</scale>
        <Icon>
          <href>https://www.gstatic.com/mapspro/images/stock/503-wht-blank_maps.png</href>
        </Icon>
      </IconStyle>
      <LabelStyle>
        <scale>1</scale>
      </LabelStyle>
    </Style>
    <StyleMap id="icon-1769-3949AB">
      <Pair>
        <key>normal</key>
        <styleUrl>#icon-1769-3949AB-normal</styleUrl>
      </Pair>
      <Pair>
        <key>highlight</key>
        <styleUrl>#icon-1769-3949AB-highlight</styleUrl>
      </Pair>
    </StyleMap>
    <Style id="icon-1769-9C27B0-normal">
      <IconStyle>
        <color>ffb0279c</color>
        <scale>1</scale>
        <Icon>
          <href>https://www.gstatic.com/mapspro/images/stock/503-wht-blank_maps.png</href>
        </Icon>
      </IconStyle>
      <LabelStyle>
        <scale>0</scale>
      </LabelStyle>
    </Style>
    <Style id="icon-1769-9C27B0-highlight">
      <IconStyle>
        <color>ffb0279c</color>
        <scale>1</scale>
        <Icon>
          <href>https://www.gstatic.com/mapspro/images/stock/503-wht-blank_maps.png</href>
        </Icon>
      </IconStyle>
      <LabelStyle>
        <scale>1</scale>
      </LabelStyle>
    </Style>
    <StyleMap id="icon-1769-9C27B0">
      <Pair>
        <key>normal</key>
        <styleUrl>#icon-1769-9C27B0-normal</styleUrl>
      </Pair>
      <Pair>
        <key>highlight</key>
        <styleUrl>#icon-1769-9C27B0-highlight</styleUrl>
      </Pair>
    </StyleMap>
    <Style id="icon-1769-E65100-normal">
      <IconStyle>
        <color>ff0051e6</color>
        <scale>1</scale>
        <Icon>
          <href>https://www.gstatic.com/mapspro/images/stock/503-wht-blank_maps.png</href>
        </Icon>
      </IconStyle>
      <LabelStyle>
        <scale>0</scale>
      </LabelStyle>
    </Style>
    <Style id="icon-1769-E65100-highlight">
      <IconStyle>
        <color>ff0051e6</color>
        <scale>1</scale>
        <Icon>
          <href>https://www.gstatic.com/mapspro/images/stock/503-wht-blank_maps.png</href>
        </Icon>
      </IconStyle>
      <LabelStyle>
        <scale>1</scale>
      </LabelStyle>
    </Style>
    <StyleMap id="icon-1769-E65100">
      <Pair>
        <key>normal</key>
        <styleUrl>#icon-1769-E65100-normal</styleUrl>
      </Pair>
      <Pair>
        <key>highlight</key>
        <styleUrl>#icon-1769-E65100-highlight</styleUrl>
      </Pair>
    </StyleMap>
    <Style id="icon-1769-FBC02D-normal">
      <IconStyle>
        <color>ff2dc0fb</color>
        <scale>1</scale>
        <Icon>
          <href>https://www.gstatic.com/mapspro/images/stock/503-wht-blank_maps.png</href>
        </Icon>
      </IconStyle>
      <LabelStyle>
        <scale>0</scale>
      </LabelStyle>
    </Style>
    <Style id="icon-1769-FBC02D-highlight">
      <IconStyle>
        <color>ff2dc0fb</color>
        <scale>1</scale>
        <Icon>
          <href>https://www.gstatic.com/mapspro/images/stock/503-wht-blank_maps.png</href>
        </Icon>
      </IconStyle>
      <LabelStyle>
        <scale>1</scale>
      </LabelStyle>
    </Style>
    <StyleMap id="icon-1769-FBC02D">
      <Pair>
        <key>normal</key>
        <styleUrl>#icon-1769-FBC02D-normal</styleUrl>
      </Pair>
      <Pair>
        <key>highlight</key>
        <styleUrl>#icon-1769-FBC02D-highlight</styleUrl>
      </Pair>
    </StyleMap>
    <Folder>
      <name>漁船（実績あり)</name>
      <Placemark>
        <name>くろはえまる渡船</name>
        <styleUrl>#icon-1622-0288D1-nodesc</styleUrl>
        <Point>
          <coordinates>
            133.2500649,33.229957,0
          </coordinates>
        </Point>
      </Placemark>
      <Placemark>
        <name>第二朝日丸</name>
        <styleUrl>#icon-1622-0288D1-nodesc</styleUrl>
        <Point>
          <coordinates>
            133.106902,33.0667979,0
          </coordinates>
        </Point>
      </Placemark>
      <Placemark>
        <name>丸西渡船</name>
        <styleUrl>#icon-1622-0288D1-nodesc</styleUrl>
        <Point>
          <coordinates>
            132.9927554,32.9390934,0
          </coordinates>
        </Point>
      </Placemark>
      <Placemark>
        <name>ひので渡船</name>
        <styleUrl>#icon-1622-0288D1-nodesc</styleUrl>
        <Point>
          <coordinates>
            132.48296,32.938414,0
          </coordinates>
        </Point>
      </Placemark>
      <Placemark>
        <name>釣船 武勝丸</name>
        <styleUrl>#icon-1622-0288D1-nodesc</styleUrl>
        <Point>
          <coordinates>
            133.0108978,33.0135288,0
          </coordinates>
        </Point>
      </Placemark>
      <Placemark>
        <name>柏島漁港ひろせさん</name>
        <styleUrl>#icon-1622-0288D1-nodesc</styleUrl>
        <Point>
          <coordinates>
            132.626587,32.7690534,0
          </coordinates>
        </Point>
      </Placemark>
    </Folder>
    <Folder>
      <name>2023回収地点</name>
      <Placemark>
        <name>2023/9/20(陸上落下)</name>
        <description><![CDATA[宙漆プロジェクト<br>民家に落下]]></description>
        <styleUrl>#icon-1769-097138</styleUrl>
        <Point>
          <coordinates>
            132.9858693,32.9514205,0
          </coordinates>
        </Point>
      </Placemark>
      <Placemark>
        <name>2023/9/20(丸西渡船)</name>
        <description>PLANET-Q</description>
        <styleUrl>#icon-1769-FBC02D</styleUrl>
        <Point>
          <coordinates>
            133.039026,32.993391,0
          </coordinates>
        </Point>
      </Placemark>
      <Placemark>
        <name>2023/9/22(クロハエ丸)</name>
        <description>ANCOプロジェクト</description>
        <styleUrl>#icon-1769-E65100</styleUrl>
        <Point>
          <coordinates>
            133.26624,33.13824,0
          </coordinates>
        </Point>
      </Placemark>
      <Placemark>
        <name>2023/9/22(クロハエ丸)</name>
        <description>気球甲子園①</description>
        <styleUrl>#icon-1769-E65100</styleUrl>
        <Point>
          <coordinates>
            133.177597,33.087528,0
          </coordinates>
        </Point>
      </Placemark>
      <Placemark>
        <name>2023/9/23(陸上落下)</name>
        <description>気球甲子園②</description>
        <styleUrl>#icon-1769-097138</styleUrl>
        <Point>
          <coordinates>
            133.060562,33.093235,0
          </coordinates>
        </Point>
      </Placemark>
      <Placemark>
        <name>2023/9/24(丸西渡船)</name>
        <description>R-SEC</description>
        <styleUrl>#icon-1769-FBC02D</styleUrl>
        <Point>
          <coordinates>
            133.321816,32.90621,0
          </coordinates>
        </Point>
      </Placemark>
    </Folder>
    <Folder>
      <name>漁船(実績なし)</name>
      <Placemark>
        <name>沖吉丸 オーシャン</name>
        <styleUrl>#icon-1622-424242-nodesc</styleUrl>
        <Point>
          <coordinates>
            132.9657728,32.7737797,0
          </coordinates>
        </Point>
      </Placemark>
      <Placemark>
        <name>清水渡船</name>
        <styleUrl>#icon-1622-424242-nodesc</styleUrl>
        <Point>
          <coordinates>
            132.95498,32.7723449,0
          </coordinates>
        </Point>
      </Placemark>
      <Placemark>
        <name>宝洋丸</name>
        <styleUrl>#icon-1622-424242-nodesc</styleUrl>
        <Point>
          <coordinates>
            133.226116,33.339674,0
          </coordinates>
        </Point>
      </Placemark>
      <Placemark>
        <name>岡野渡船</name>
        <styleUrl>#icon-1622-424242-nodesc</styleUrl>
        <Point>
          <coordinates>
            133.0094655,32.7240467,0
          </coordinates>
        </Point>
      </Placemark>
      <Placemark>
        <name>漁栄丸(遊漁船・漁栄丸)/北代水産</name>
        <styleUrl>#icon-1622-424242-nodesc</styleUrl>
        <Point>
          <coordinates>
            132.9507444,32.7790533,0
          </coordinates>
        </Point>
      </Placemark>
      <Placemark>
        <name>ほてい渡船</name>
        <styleUrl>#icon-1622-424242-nodesc</styleUrl>
        <Point>
          <coordinates>
            132.5179673,32.9102672,0
          </coordinates>
        </Point>
      </Placemark>
      <Placemark>
        <name>えひめ渡船</name>
        <styleUrl>#icon-1622-424242-nodesc</styleUrl>
        <Point>
          <coordinates>
            132.48311,32.937961,0
          </coordinates>
        </Point>
      </Placemark>
      <Placemark>
        <name>ながはま渡船</name>
        <styleUrl>#icon-1622-424242-nodesc</styleUrl>
        <Point>
          <coordinates>
            132.479986,32.938497,0
          </coordinates>
        </Point>
      </Placemark>
      <Placemark>
        <name>末光渡船</name>
        <styleUrl>#icon-1622-424242-nodesc</styleUrl>
        <Point>
          <coordinates>
            132.484152,32.940034,0
          </coordinates>
        </Point>
      </Placemark>
      <Placemark>
        <name>あづまや渡船</name>
        <styleUrl>#icon-1622-424242-nodesc</styleUrl>
        <Point>
          <coordinates>
            132.49806,32.916109,0
          </coordinates>
        </Point>
      </Placemark>
      <Placemark>
        <name>いろは渡船</name>
        <styleUrl>#icon-1622-424242-nodesc</styleUrl>
        <Point>
          <coordinates>
            132.499585,32.9148972,0
          </coordinates>
        </Point>
      </Placemark>
      <Placemark>
        <name>なぎさ</name>
        <styleUrl>#icon-1622-424242-nodesc</styleUrl>
        <Point>
          <coordinates>
            132.5179954,32.9118655,0
          </coordinates>
        </Point>
      </Placemark>
      <Placemark>
        <name>松田渡船</name>
        <styleUrl>#icon-1622-424242-nodesc</styleUrl>
        <Point>
          <coordinates>
            132.4319725,33.0517866,0
          </coordinates>
        </Point>
      </Placemark>
      <Placemark>
        <name>赤松釣りセンター</name>
        <styleUrl>#icon-1622-424242-nodesc</styleUrl>
        <Point>
          <coordinates>
            132.4761514,33.1075448,0
          </coordinates>
        </Point>
      </Placemark>
      <Placemark>
        <name>田島渡船</name>
        <styleUrl>#icon-1622-424242-nodesc</styleUrl>
        <Point>
          <coordinates>
            132.4656205,33.1405434,0
          </coordinates>
        </Point>
      </Placemark>
      <Placemark>
        <name>レンタルボート清家</name>
        <styleUrl>#icon-1622-424242-nodesc</styleUrl>
        <Point>
          <coordinates>
            132.4546935,33.1421901,0
          </coordinates>
        </Point>
      </Placemark>
    </Folder>
    <Folder>
      <name>2025回収地点</name>
      <Placemark>
        <name>2025/9/10(釣船 武勝丸)(未回収)</name>
        <description>PLANET-Q</description>
        <styleUrl>#icon-1769-9C27B0</styleUrl>
        <Point>
          <coordinates>
            133.499306,33.399,0
          </coordinates>
        </Point>
      </Placemark>
      <Placemark>
        <name>2025/9/12(柏島漁港ひろせさん)</name>
        <description>WASA</description>
        <styleUrl>#icon-1769-3949AB</styleUrl>
        <Point>
          <coordinates>
            132.65053,32.6842,0
          </coordinates>
        </Point>
      </Placemark>
    </Folder>
  </Document>
</kml>
